STARLINK-35772          
1 66976U 25288T   25360.75003471  .00082473  00000+0  19627-2 0  9992
2 66976  43.0002  83.3024 0001312 273.3947   0.5614 15.40663145  4080
STARLINK-35770          
1 66977U 25288U   25360.75003471 -.01981846  00000+0 -28176-1 0  9996
2 66977  43.0001  81.8856 0001138 290.0960 197.2941 15.59035998  4089
STARLINK-35787          
1 66978U 25288V   25360.75003471 -.01969063  00000+0 -27977-1 0  9992
2 66978  43.0001  81.8710 0001237 292.5076 200.6362 15.59027548  4082
STARLINK-36107          
1 66979U 25288W   25360.75003471 -.01983879  00000+0 -28207-1 0  9991
2 66979  43.0000  81.8665 0001192 286.9885 208.0702 15.59036828  4087
STARLINK-36086          
1 66980U 25288X   25360.75003471 -.01978215  00000+0 -28119-1 0  9993
2 66980  43.0001  81.8610 0001206 290.7837 206.1922 15.59033883  4087
STARLINK-36142          
1 66981U 25288Y   25360.75003471 -.01974727  00000+0 -28064-1 0  9997
2 66981  43.0003  81.8574 0001261 288.4000 210.4944 15.59031082  4087
STARLINK-36113          
1 66982U 25288Z   25360.75003471 -.01962820  00000+0 -27878-1 0  9991
2 66982  43.0000  81.8517 0001425 291.8788 208.9351 15.59023705  4082
STARLINK-36145          
1 66983U 25288AA  25360.75003471 -.01977434  00000+0 -28107-1 0  9995
2 66983  43.0001  81.8412 0001164 288.4159 216.2298 15.59033110  4085
STARLINK-35591          
1 66984U 25288AB  25360.75003471 -.01976968  00000+0 -28099-1 0  9997
2 66984  43.0002  81.8466 0001164 288.0662 214.6606 15.59033776  4084
STARLINK-36103          
1 66985U 25288AC  25360.75003471 -.01979020  00000+0 -28131-1 0  9997
2 66985  43.0002  81.8368 0001249 287.1322 219.4297 15.59034162  4082
STARLINK-36135          
1 66986U 25288AD  25360.75003471 -.01972715  00000+0 -28032-1 0  9992
2 66986  43.0002  81.8316 0001286 291.0008 217.4784 15.59030803  4089
STARLINK-36147          
1 66987U 25288AE  25360.75003471 -.01964037  00000+0 -27897-1 0  9999
2 66987  43.0002  81.8281 0001314 290.1956 220.2023 15.59025005  4081
